{
"type": "FeatureCollection",
"name": "img-locations-select-path",
"crs": { "type": "name", "properties": { "name": "urn:ogc:def:crs:OGC:1.3:CRS84" } },
"features": [
{ "type": "Feature", "properties": { "filename": "IMG_5085.jpeg", "imageUrl": "/thumbnails/IMG_5085.jpg" }, "geometry": { "type": "Point", "coordinates": [ -73.619941666666662, 45.532313888888886 ] } },
{ "type": "Feature", "properties": { "filename": "IMG_8867.jpeg", "imageUrl": "/thumbnails/IMG_8867.jpg" }, "geometry": { "type": "Point", "coordinates": [ -73.619736111111109, 45.534675 ] } },
{ "type": "Feature", "properties": { "filename": "IMG_4923.jpeg", "imageUrl": "/thumbnails/IMG_4923.jpg" }, "geometry": { "type": "Point", "coordinates": [ -73.619583333333324, 45.531127777777776 ] } },
{ "type": "Feature", "properties": { "filename": "IMG_6098.jpeg", "imageUrl": "/thumbnails/IMG_6098.jpg" }, "geometry": { "type": "Point", "coordinates": [ -73.618744444444431, 45.525708333333334 ] } },
{ "type": "Feature", "properties": { "filename": "IMG_6440.jpeg", "imageUrl": "/thumbnails/IMG_6440.jpg" }, "geometry": { "type": "Point", "coordinates": [ -73.618583333333333, 45.530608333333333 ] } },
{ "type": "Feature", "properties": { "filename": "IMG_4355.jpeg", "imageUrl": "/thumbnails/IMG_4355.jpg" }, "geometry": { "type": "Point", "coordinates": [ -73.617569444444442, 45.534602777777778 ] } },
{ "type": "Feature", "properties": { "filename": "IMG_7434.jpeg", "imageUrl": "/thumbnails/IMG_7434.jpg" }, "geometry": { "type": "Point", "coordinates": [ -73.617102777777774, 45.529627777777776 ] } },
{ "type": "Feature", "properties": { "filename": "IMG_5296.jpeg", "imageUrl": "/thumbnails/IMG_5296.jpg" }, "geometry": { "type": "Point", "coordinates": [ -73.616102777777769, 45.528569444444443 ] } },
{ "type": "Feature", "properties": { "filename": "IMG_3980.jpeg", "imageUrl": "/thumbnails/IMG_3980.jpg" }, "geometry": { "type": "Point", "coordinates": [ -73.615883333333329, 45.533938888888891 ] } },
{ "type": "Feature", "properties": { "filename": "IMG_1298.jpeg", "imageUrl": "/thumbnails/IMG_1298.jpg" }, "geometry": { "type": "Point", "coordinates": [ -73.615738888888885, 45.52705 ] } },
{ "type": "Feature", "properties": { "filename": "IMG_3422.jpeg", "imageUrl": "/thumbnails/IMG_3422.jpg" }, "geometry": { "type": "Point", "coordinates": [ -73.614477777777779, 45.533775 ] } },
{ "type": "Feature", "properties": { "filename": "IMG_5896.jpeg", "imageUrl": "/thumbnails/IMG_5896.jpg" }, "geometry": { "type": "Point", "coordinates": [ -73.614088888888887, 45.538802777777775 ] } },
{ "type": "Feature", "properties": { "filename": "IMG_6063.jpeg", "imageUrl": "/thumbnails/IMG_6063.jpg" }, "geometry": { "type": "Point", "coordinates": [ -73.613647222222212, 45.538033333333331 ] } },
{ "type": "Feature", "properties": { "filename": "montreal-garbage_trash_bent_crush_metal.jpeg", "imageUrl": "/thumbnails/montreal-garbage_trash_bent_crush_metal.jpg" }, "geometry": { "type": "Point", "coordinates": [ -73.613563888888876, 45.53971111111111 ] } },
{ "type": "Feature", "properties": { "filename": "IMG_7365.jpeg", "imageUrl": "/thumbnails/IMG_7365.jpg" }, "geometry": { "type": "Point", "coordinates": [ -73.6130361111111, 45.531433333333332 ] } },
{ "type": "Feature", "properties": { "filename": "IMG_4518.jpeg", "imageUrl": "/thumbnails/IMG_4518.jpg" }, "geometry": { "type": "Point", "coordinates": [ -73.6129, 45.532202777777776 ] } },
{ "type": "Feature", "properties": { "filename": "IMG_5950.jpeg", "imageUrl": "/thumbnails/IMG_5950.jpg" }, "geometry": { "type": "Point", "coordinates": [ -73.6119611111111, 45.540097222222222 ] } },
{ "type": "Feature", "properties": { "filename": "IMG_8614.jpeg", "imageUrl": "/thumbnails/IMG_8614.jpg" }, "geometry": { "type": "Point", "coordinates": [ -73.611663888888884, 45.537072222222221 ] } },
{ "type": "Feature", "properties": { "filename": "IMG_7363.jpeg", "imageUrl": "/thumbnails/IMG_7363.jpg" }, "geometry": { "type": "Point", "coordinates": [ -73.611183333333329, 45.530044444444442 ] } },
{ "type": "Feature", "properties": { "filename": "IMG_6295.jpeg", "imageUrl": "/thumbnails/IMG_6295.jpg" }, "geometry": { "type": "Point", "coordinates": [ -73.610947222222222, 45.535572222222221 ] } },
{ "type": "Feature", "properties": { "filename": "IMG_1499.jpeg", "imageUrl": "/thumbnails/IMG_1499.jpg" }, "geometry": { "type": "Point", "coordinates": [ -73.610786111111111, 45.529177777777775 ] } },
{ "type": "Feature", "properties": { "filename": "IMG_3898.jpeg", "imageUrl": "/thumbnails/IMG_3898.jpg" }, "geometry": { "type": "Point", "coordinates": [ -73.609733333333324, 45.528380555555557 ] } },
{ "type": "Feature", "properties": { "filename": "IMG_0559.jpeg", "imageUrl": "/thumbnails/IMG_0559.jpg" }, "geometry": { "type": "Point", "coordinates": [ -73.609252777777769, 45.534283333333335 ] } },
{ "type": "Feature", "properties": { "filename": "IMG_3906.jpeg", "imageUrl": "/thumbnails/IMG_3906.jpg" }, "geometry": { "type": "Point", "coordinates": [ -73.607811111111104, 45.52869444444444 ] } },
{ "type": "Feature", "properties": { "filename": "IMG_3823.jpeg", "imageUrl": "/thumbnails/IMG_3823.jpg" }, "geometry": { "type": "Point", "coordinates": [ -73.606216666666654, 45.529019444444444 ] } },
{ "type": "Feature", "properties": { "filename": "IMG_8615.jpeg", "imageUrl": "/thumbnails/IMG_8615.jpg" }, "geometry": { "type": "Point", "coordinates": [ -73.606055555555557, 45.534725 ] } },
{ "type": "Feature", "properties": { "filename": "IMG_3654.jpeg", "imageUrl": "/thumbnails/IMG_3654.jpg" }, "geometry": { "type": "Point", "coordinates": [ -73.605469444444438, 45.532561111111107 ] } }
]
}
