{
"type": "FeatureCollection",
"name": "img-locations-for-drawing",
"crs": { "type": "name", "properties": { "name": "urn:ogc:def:crs:OGC:1.3:CRS84" } },
"features": [
{ "type": "Feature", "properties": { "filename": "IMG_6084.jpeg", "imageUrl": "/thumbnails/IMG_6084.jpg", "id": 1, "longitude": -73.622413888899999 }, "geometry": { "type": "Point", "coordinates": [ -73.622413888888886, 45.530638888888888 ] } },
{ "type": "Feature", "properties": { "filename": "IMG_1459.jpeg", "imageUrl": "/thumbnails/IMG_1459.jpg", "id": 28, "longitude": -73.615638888899994 }, "geometry": { "type": "Point", "coordinates": [ -73.615638888888881, 45.533077777777777 ] } },
{ "type": "Feature", "properties": { "filename": "IMG_3666 (1).jpeg", "imageUrl": "/thumbnails/IMG_3666 (1).jpg", "id": 5, "longitude": -73.619688888900001 }, "geometry": { "type": "Point", "coordinates": [ -73.619688888888888, 45.534911111111107 ] } },
{ "type": "Feature", "properties": { "filename": "IMG_3055.jpeg", "imageUrl": "/thumbnails/IMG_3055.jpg", "id": 20, "longitude": -73.616202777799998 }, "geometry": { "type": "Point", "coordinates": [ -73.616202777777772, 45.539402777777774 ] } },
{ "type": "Feature", "properties": { "filename": "IMG_3076.jpeg", "imageUrl": "/thumbnails/IMG_3076.jpg", "id": 31, "longitude": -73.614188888900003 }, "geometry": { "type": "Point", "coordinates": [ -73.61418888888889, 45.538819444444442 ] } },
{ "type": "Feature", "properties": { "filename": "IMG_3422.jpeg", "imageUrl": "/thumbnails/IMG_3422.jpg", "id": 29, "longitude": -73.614477777800005 }, "geometry": { "type": "Point", "coordinates": [ -73.614477777777779, 45.533775 ] } },
{ "type": "Feature", "properties": { "filename": "IMG_4355.jpeg", "imageUrl": "/thumbnails/IMG_4355.jpg", "id": 12, "longitude": -73.617569444400004 }, "geometry": { "type": "Point", "coordinates": [ -73.617569444444442, 45.534602777777778 ] } },
{ "type": "Feature", "properties": { "filename": "IMG_3823.jpeg", "imageUrl": "/thumbnails/IMG_3823.jpg", "id": 50, "longitude": -73.606216666700007 }, "geometry": { "type": "Point", "coordinates": [ -73.606216666666654, 45.529019444444444 ] } },
{ "type": "Feature", "properties": { "filename": "IMG_3870.jpeg", "imageUrl": "/thumbnails/IMG_3870.jpg", "id": 47, "longitude": -73.607719444400004 }, "geometry": { "type": "Point", "coordinates": [ -73.607719444444442, 45.528691666666667 ] } },
{ "type": "Feature", "properties": { "filename": "IMG_3906.jpeg", "imageUrl": "/thumbnails/IMG_3906.jpg", "id": 46, "longitude": -73.607811111100006 }, "geometry": { "type": "Point", "coordinates": [ -73.607811111111104, 45.52869444444444 ] } },
{ "type": "Feature", "properties": { "filename": "IMG_1298.jpeg", "imageUrl": "/thumbnails/IMG_1298.jpg", "id": 27, "longitude": -73.615738888899998 }, "geometry": { "type": "Point", "coordinates": [ -73.615738888888885, 45.52705 ] } },
{ "type": "Feature", "properties": { "filename": "IMG_3980.jpeg", "imageUrl": "/thumbnails/IMG_3980.jpg", "id": 25, "longitude": -73.615883333300005 }, "geometry": { "type": "Point", "coordinates": [ -73.615883333333329, 45.533938888888891 ] } },
{ "type": "Feature", "properties": { "filename": "IMG_4081.jpeg", "imageUrl": "/thumbnails/IMG_4081.jpg", "id": 30, "longitude": -73.614433333299999 }, "geometry": { "type": "Point", "coordinates": [ -73.614433333333324, 45.538180555555556 ] } },
{ "type": "Feature", "properties": { "filename": "IMG_4085.jpeg", "imageUrl": "/thumbnails/IMG_4085.jpg", "id": 17, "longitude": -73.616408333300001 }, "geometry": { "type": "Point", "coordinates": [ -73.616408333333325, 45.531997222222223 ] } },
{ "type": "Feature", "properties": { "filename": "IMG_4097.jpeg", "imageUrl": "/thumbnails/IMG_4097.jpg", "id": 18, "longitude": -73.616386111099999 }, "geometry": { "type": "Point", "coordinates": [ -73.616386111111112, 45.532275 ] } },
{ "type": "Feature", "properties": { "filename": "IMG_4115.jpeg", "imageUrl": "/thumbnails/IMG_4115.jpg", "id": 16, "longitude": -73.616761111100004 }, "geometry": { "type": "Point", "coordinates": [ -73.616761111111103, 45.531002777777779 ] } },
{ "type": "Feature", "properties": { "filename": "IMG_4405.jpeg", "imageUrl": "/thumbnails/IMG_4405.jpg", "id": 15, "longitude": -73.616875 }, "geometry": { "type": "Point", "coordinates": [ -73.616875, 45.531058333333334 ] } },
{ "type": "Feature", "properties": { "filename": "IMG_4923.jpeg", "imageUrl": "/thumbnails/IMG_4923.jpg", "id": 6, "longitude": -73.6195833333 }, "geometry": { "type": "Point", "coordinates": [ -73.619583333333324, 45.531127777777776 ] } },
{ "type": "Feature", "properties": { "filename": "IMG_4941.jpeg", "imageUrl": "/thumbnails/IMG_4941.jpg", "id": 21, "longitude": -73.616158333300007 }, "geometry": { "type": "Point", "coordinates": [ -73.616158333333331, 45.530461111111109 ] } },
{ "type": "Feature", "properties": { "filename": "IMG_5085.jpeg", "imageUrl": "/thumbnails/IMG_5085.jpg", "id": 3, "longitude": -73.619941666700001 }, "geometry": { "type": "Point", "coordinates": [ -73.619941666666662, 45.532313888888886 ] } },
{ "type": "Feature", "properties": { "filename": "IMG_5296.jpeg", "imageUrl": "/thumbnails/IMG_5296.jpg", "id": 23, "longitude": -73.616102777799995 }, "geometry": { "type": "Point", "coordinates": [ -73.616102777777769, 45.528569444444443 ] } },
{ "type": "Feature", "properties": { "filename": "IMG_2683.jpeg", "imageUrl": "/thumbnails/IMG_2683.jpg", "id": 33, "longitude": -73.614036111100006 }, "geometry": { "type": "Point", "coordinates": [ -73.614036111111105, 45.533894444444442 ] } },
{ "type": "Feature", "properties": { "filename": "IMG_5542.jpeg", "imageUrl": "/thumbnails/IMG_5542.jpg", "id": 24, "longitude": -73.615997222199994 }, "geometry": { "type": "Point", "coordinates": [ -73.615997222222219, 45.539433333333335 ] } },
{ "type": "Feature", "properties": { "filename": "IMG_5644.jpeg", "imageUrl": "/thumbnails/IMG_5644.jpg", "id": 7, "longitude": -73.619041666699999 }, "geometry": { "type": "Point", "coordinates": [ -73.619041666666661, 45.532980555555554 ] } },
{ "type": "Feature", "properties": { "filename": "IMG_5761.jpeg", "imageUrl": "/thumbnails/IMG_5761.jpg", "id": 26, "longitude": -73.615836111099995 }, "geometry": { "type": "Point", "coordinates": [ -73.615836111111108, 45.53254444444444 ] } },
{ "type": "Feature", "properties": { "filename": "IMG_5896.jpeg", "imageUrl": "/thumbnails/IMG_5896.jpg", "id": 32, "longitude": -73.6140888889 }, "geometry": { "type": "Point", "coordinates": [ -73.614088888888887, 45.538802777777775 ] } },
{ "type": "Feature", "properties": { "filename": "IMG_5950.jpeg", "imageUrl": "/thumbnails/IMG_5950.jpg", "id": 38, "longitude": -73.611961111100001 }, "geometry": { "type": "Point", "coordinates": [ -73.6119611111111, 45.540097222222222 ] } },
{ "type": "Feature", "properties": { "filename": "IMG_6063.jpeg", "imageUrl": "/thumbnails/IMG_6063.jpg", "id": 34, "longitude": -73.613647222200001 }, "geometry": { "type": "Point", "coordinates": [ -73.613647222222212, 45.538033333333331 ] } },
{ "type": "Feature", "properties": { "filename": "IMG_4518.jpeg", "imageUrl": "/thumbnails/IMG_4518.jpg", "id": 37, "longitude": -73.6129 }, "geometry": { "type": "Point", "coordinates": [ -73.6129, 45.532202777777776 ] } },
{ "type": "Feature", "properties": { "filename": "IMG_6086.jpeg", "imageUrl": "/thumbnails/IMG_6086.jpg", "id": 2, "longitude": -73.622169444400001 }, "geometry": { "type": "Point", "coordinates": [ -73.622169444444438, 45.530133333333332 ] } },
{ "type": "Feature", "properties": { "filename": "IMG_2682.jpeg", "imageUrl": "/thumbnails/IMG_2682.jpg", "id": 39, "longitude": -73.611725 }, "geometry": { "type": "Point", "coordinates": [ -73.611725, 45.53200833333333 ] } },
{ "type": "Feature", "properties": { "filename": "IMG_6098.jpeg", "imageUrl": "/thumbnails/IMG_6098.jpg", "id": 8, "longitude": -73.618744444399994 }, "geometry": { "type": "Point", "coordinates": [ -73.618744444444431, 45.525708333333334 ] } },
{ "type": "Feature", "properties": { "filename": "IMG_6295.jpeg", "imageUrl": "/thumbnails/IMG_6295.jpg", "id": 42, "longitude": -73.610947222199997 }, "geometry": { "type": "Point", "coordinates": [ -73.610947222222222, 45.535572222222221 ] } },
{ "type": "Feature", "properties": { "filename": "IMG_1499.jpeg", "imageUrl": "/thumbnails/IMG_1499.jpg", "id": 43, "longitude": -73.610786111099998 }, "geometry": { "type": "Point", "coordinates": [ -73.610786111111111, 45.529177777777775 ] } },
{ "type": "Feature", "properties": { "filename": "IMG_6439.jpeg", "imageUrl": "/thumbnails/IMG_6439.jpg", "id": 13, "longitude": -73.6172861111 }, "geometry": { "type": "Point", "coordinates": [ -73.617286111111099, 45.530977777777778 ] } },
{ "type": "Feature", "properties": { "filename": "IMG_6440.jpeg", "imageUrl": "/thumbnails/IMG_6440.jpg", "id": 9, "longitude": -73.618583333299995 }, "geometry": { "type": "Point", "coordinates": [ -73.618583333333333, 45.530608333333333 ] } },
{ "type": "Feature", "properties": { "filename": "IMG_3898.jpeg", "imageUrl": "/thumbnails/IMG_3898.jpg", "id": 44, "longitude": -73.609733333299999 }, "geometry": { "type": "Point", "coordinates": [ -73.609733333333324, 45.528380555555557 ] } },
{ "type": "Feature", "properties": { "filename": "IMG_0559.jpeg", "imageUrl": "/thumbnails/IMG_0559.jpg", "id": 45, "longitude": -73.609252777799995 }, "geometry": { "type": "Point", "coordinates": [ -73.609252777777769, 45.534283333333335 ] } },
{ "type": "Feature", "properties": { "filename": "IMG_3666.jpeg", "imageUrl": "/thumbnails/IMG_3666.jpg", "id": 47, "longitude": -73.607719444400004 }, "geometry": { "type": "Point", "coordinates": [ -73.607719444444442, 45.529902777777778 ] } },
{ "type": "Feature", "properties": { "filename": "IMG_6591.jpeg", "imageUrl": "/thumbnails/IMG_6591.jpg", "id": 11, "longitude": -73.618011111100003 }, "geometry": { "type": "Point", "coordinates": [ -73.618011111111102, 45.531630555555552 ] } },
{ "type": "Feature", "properties": { "filename": "IMG_6617.jpeg", "imageUrl": "/thumbnails/IMG_6617.jpg", "id": 10, "longitude": -73.618180555600006 }, "geometry": { "type": "Point", "coordinates": [ -73.618180555555554, 45.531544444444442 ] } },
{ "type": "Feature", "properties": { "filename": "IMG_7363.jpeg", "imageUrl": "/thumbnails/IMG_7363.jpg", "id": 41, "longitude": -73.611183333300005 }, "geometry": { "type": "Point", "coordinates": [ -73.611183333333329, 45.530044444444442 ] } },
{ "type": "Feature", "properties": { "filename": "IMG_1742.jpeg", "imageUrl": "/thumbnails/IMG_1742.jpg", "id": 52, "longitude": -73.605688888900005 }, "geometry": { "type": "Point", "coordinates": [ -73.605688888888878, 45.529066666666665 ] } },
{ "type": "Feature", "properties": { "filename": "IMG_7365.jpeg", "imageUrl": "/thumbnails/IMG_7365.jpg", "id": 36, "longitude": -73.613036111100001 }, "geometry": { "type": "Point", "coordinates": [ -73.6130361111111, 45.531433333333332 ] } },
{ "type": "Feature", "properties": { "filename": "IMG_7434.jpeg", "imageUrl": "/thumbnails/IMG_7434.jpg", "id": 14, "longitude": -73.6171027778 }, "geometry": { "type": "Point", "coordinates": [ -73.617102777777774, 45.529627777777776 ] } },
{ "type": "Feature", "properties": { "filename": "IMG_3654.jpeg", "imageUrl": "/thumbnails/IMG_3654.jpg", "id": 53, "longitude": -73.605469444400001 }, "geometry": { "type": "Point", "coordinates": [ -73.605469444444438, 45.532561111111107 ] } },
{ "type": "Feature", "properties": { "filename": "IMG_7473.jpeg", "imageUrl": "/thumbnails/IMG_7473.jpg", "id": 22, "longitude": -73.616111111099997 }, "geometry": { "type": "Point", "coordinates": [ -73.61611111111111, 45.53254444444444 ] } },
{ "type": "Feature", "properties": { "filename": "IMG_8318.jpeg", "imageUrl": "/thumbnails/IMG_8318.jpg", "id": 49, "longitude": -73.606566666700004 }, "geometry": { "type": "Point", "coordinates": [ -73.606566666666666, 45.529422222222223 ] } },
{ "type": "Feature", "properties": { "filename": "IMG_8614.jpeg", "imageUrl": "/thumbnails/IMG_8614.jpg", "id": 40, "longitude": -73.611663888899997 }, "geometry": { "type": "Point", "coordinates": [ -73.611663888888884, 45.537072222222221 ] } },
{ "type": "Feature", "properties": { "filename": "IMG_8615.jpeg", "imageUrl": "/thumbnails/IMG_8615.jpg", "id": 51, "longitude": -73.606055555599994 }, "geometry": { "type": "Point", "coordinates": [ -73.606055555555557, 45.534725 ] } },
{ "type": "Feature", "properties": { "filename": "IMG_8867.jpeg", "imageUrl": "/thumbnails/IMG_8867.jpg", "id": 4, "longitude": -73.619736111099996 }, "geometry": { "type": "Point", "coordinates": [ -73.619736111111109, 45.534675 ] } },
{ "type": "Feature", "properties": { "filename": "IMG_9878.jpeg", "imageUrl": "/thumbnails/IMG_9878.jpg", "id": 19, "longitude": -73.616377777799997 }, "geometry": { "type": "Point", "coordinates": [ -73.616377777777771, 45.531933333333335 ] } },
{ "type": "Feature", "properties": { "filename": "montreal-garbage_trash_bent_crush_metal.jpeg", "imageUrl": "/thumbnails/montreal-garbage_trash_bent_crush_metal.jpg", "id": 35, "longitude": -73.613563888900003 }, "geometry": { "type": "Point", "coordinates": [ -73.613563888888876, 45.53971111111111 ] } }
]
}
